COSMOS 1953             
1 19210U 88050A   15336.17620295  .00001011  00000-0  70342-4 0  9997
2 19210  82.5195 218.8985 0014444  25.3258 334.8674 15.04342694493164
SL-8 R/B                
1 19257U 88053B   15335.78923946  .00000189  00000-0  72101-4 0  9996
2 19257  74.0475 172.2207 0020951 205.3391 229.5940 14.37265856437826
COSMOS 1975             
1 19573U 88093A   15336.07713828  .00001514  00000-0  10961-3 0  9998
2 19573  82.5196 169.9623 0016113  57.8667 302.4119 15.03208353475180
SL-14 R/B               
1 19574U 88093B   15336.21325319  .00000255  00000-0  28202-4 0  9998
2 19574  82.5310 311.3606 0021964 168.4306 269.3213 14.83085669466009
SL-16 R/B               
1 19650U 88102B   15335.53280251 -.00000024  00000-0  12010-4 0  9998
2 19650  70.9982 120.2741 0015739 313.7641  46.2179 14.15729579396215
INTERCOSMOS 24          
1 20261U 89080A   15336.53796921  .00000492  00000-0  14735-3 0  9994
2 20261  82.5938  14.3858 1204549 314.1557  36.6392 12.55654029195348
SL-14 R/B               
1 20262U 89080C   15335.32870474  .00000154  00000-0  36786-4 0  9993
2 20262  82.5962  57.1975 1238283 101.9695 272.2623 12.48759871191342
DELTA 1 R/B             
1 20323U 89089B   15335.50646657  .00000168  00000-0  52660-4 0  9998
2 20323  97.0728   1.3823 0073220  55.1693 305.6362 14.48058054373147
DELTA 2 R/B(1)          
1 20453U 90008B   15335.15791514  .00002769  00000-0  16583-3 0  9991
2 20453  35.6266 298.2210 0299794 165.5960 195.3524 14.80310513364480
COSMOS 2058             
1 20465U 90010A   15335.77280013  .00001156  00000-0  98339-4 0  9991
2 20465  82.4916  69.3412 0016576  36.2970 323.9373 14.96860467401035
SL-14 R/B               
1 20466U 90010B   15335.84796571  .00000182  00000-0  20313-4 0  9996
2 20466  82.5025 179.6578 0021403  32.3133 327.9387 14.81156894394103
SL-14 R/B               
1 20511U 90018B   15336.50104394  .00000273  00000-0  33135-4 0  9992
2 20511  82.5221 118.0777 0018183 153.9244 313.7368 14.79820869388847
HST                     
1 20580U 90037B   15336.57450995  .00001334  00000-0  73368-4 0  9998
2 20580  28.4690 123.3362 0002633 244.0542 187.8804 15.07938139205246
SL-16 R/B               
1 20625U 90046B   15334.78857580 -.00000250  00000-0 -10532-3 0  9991
2 20625  71.0002 253.6640 0016685 248.7928 141.6223 14.14588657318021
COSMOS 2084             
1 20663U 90055A   15335.90685977  .00001124  00000-0  12132-3 0  9994
2 20663  62.7941 307.1630 0102559  32.2919 328.4396 14.90851421375809
SL-6 R/B(2)             
1 20666U 90055D   15335.30362618  .00000990  00000-0  10451-3 0  9997
2 20666  62.7848 229.6434 0120197  53.2419 307.9637 14.91254290377066
SL-8 R/B                
1 20775U 90078B   15335.45644270  .00005122  00000-0  26701-3 0  9993
2 20775  82.9299 148.9917 0605741 274.2290  78.9938 14.26213878268260
SL-8 R/B                
1 21088U 91006B   15335.42706781  .00000042  00000-0  26953-4 0  9992
2 21088  82.9435  79.3189 0023908  98.4507 306.0536 13.77014275248019
OKEAN-3                 
1 21397U 91039A   15336.00812794  .00001115  00000-0  10750-3 0  9997
2 21397  82.5208 313.1765 0017171 324.9428  35.0660 14.91927003325796
COSMOS 2151             
1 21422U 91042A   15336.32714234  .00000666  00000-0  64059-4 0  9997
2 21422  82.5024  61.9376 0014708  19.4460 340.7317 14.91427784324595
SL-14 R/B               
1 21423U 91042B   15336.01354522  .00000261  00000-0  31813-4 0  9997
2 21423  82.4925 127.6646 0016330 297.2914  62.6636 14.79574013319309
ERS-1                   
1 21574U 91050A   15335.81490241  .00000235  00000-0  92490-4 0  9998
2 21574  98.3895 283.2799 0032598 196.9745 163.0354 14.37413128276653
ARIANE 40 R/B           
1 21610U 91050F   15335.55193545  .00000113  00000-0  49812-4 0  9992
2 21610  98.6844  15.1299 0003393 167.2844 353.3968 14.40677044278953
INTERCOSMOS 25          
1 21819U 91086A   15335.77160583  .00000873  00000-0  16815-3 0  9991
2 21819  82.5561  41.6777 1527939 205.2265 146.5953 12.03898371 44463
SL-14 R/B               
1 21820U 91086B   15335.46216172  .00000333  00000-0  62415-4 0  9994
2 21820  82.5609  90.9701 1578747  12.3938 351.1630 11.93053608 39553
SL-8 R/B                
1 21876U 92008B   15336.21462726 -.00000015  00000-0 -30922-4 0  9999
2 21876  82.9257 175.6064 0035028 163.9633 316.1847 13.75570819193983
SL-8 R/B                
1 21938U 92020B   15335.42020204  .00000067  00000-0  54165-4 0  9995
2 21938  82.9320  59.0100 0028277 327.2576  81.3003 13.75233952185809
SL-16 R/B               
1 22220U 92076B   15335.75688794 -.00000241  00000-0 -97215-4 0  9990
2 22220  70.9985 165.2072 0011152  43.6835  13.1598 14.16383673190997
SL-16 R/B               
1 22285U 92093B   15336.23941984 -.00000166  00000-0 -61137-4 0  9997
2 22285  71.0219 313.1861 0006830 268.2662  91.7679 14.14986129182907
COSMOS 2228             
1 22286U 92094A   15336.14453910  .00000689  00000-0  73539-4 0  9993
2 22286  82.5209 184.8053 0020430 186.2961 173.8002 14.87226968238792
SL-16 R/B               
1 22566U 93016B   15336.04398800 -.00000245  00000-0 -10187-3 0  9993
2 22566  71.0061 168.9630 0012862 270.6269  89.3380 14.14916858171616
COSMOS 2242             
1 22626U 93024A   15335.76116455  .00000679  00000-0  72495-4 0  9991
2 22626  82.5233 212.8273 0018832 186.2408 173.8578 14.87243173222396
SL-16 R/B               
1 22803U 93059B   15336.50303091 -.00000060  00000-0 -58367-5 0  9992
2 22803  70.9906 355.1054 0016665 170.7758 189.3675 14.16728780148589
ARIANE 40 R/B           
1 22830U 93061H   15336.52125391  .00000038  00000-0  31797-4 0  9992
2 22830  98.8773 327.9935 0011692 127.5632 346.9450 14.31384664157758
COSMOS 2278             
1 23087U 94023A   15335.80193780 -.00000261  00000-0 -11335-3 0  9998
2 23087  71.0536  96.4303 0009764 338.1062 184.1675 14.13696659114871
SL-16 R/B               
1 23088U 94023B   15335.57151731 -.00000283  00000-0 -12249-3 0  9992
2 23088  71.0009  24.9911 0005678 251.8759 108.1745 14.14631148115836
SL-16 R/B               
1 23343U 94074B   15336.53600964  .00000126  00000-0  25759-4 0  9991
2 23343  98.2103 354.9215 0008226  78.3592  72.4725 14.76605220133794
SL-16 R/B               
1 23405U 94077B   15336.14475940  .00000254  00000-0  15559-3 0  9992
2 23405  70.9827 319.1755 0000508 136.9016 223.2146 14.15168483 85856
ERS-2                   
1 23560U 95021A   15336.47389203  .00003876  00000-0  19887-3 0  9997
2 23560  98.5065 245.6862 0005279  60.8394 299.3364 15.17255338 89943
ARIANE 40+ R/B          
1 23561U 95021B   15336.55230015  .00000181  00000-0  75464-4 0  9993
2 23561  98.7505 314.9947 0007839 119.5131 342.1148 14.37672909 80401
SL-16 R/B               
1 23705U 95058B   15336.42046302 -.00000136  00000-0 -45849-4 0  9999
2 23705  71.0202 129.7221 0010322  72.8066 287.4186 14.15073417 37573
SL-16 R/B               
1 24298U 96051B   15336.55460368 -.00000046  00000-0  16711-5 0  9993
2 24298  70.8337 168.1569 0018281 291.7956  68.1219 14.12387356992377
ORBVIEW 2 (SEASTAR)     
1 24883U 97037A   15336.47016796  .00000137  00000-0  65492-4 0  9990
2 24883  98.5121  82.6682 0001968   1.1202 358.9986 14.33257707971290
SL-16 R/B               
1 25400U 98043G   15336.09949326  .00000049  00000-0  38379-4 0  9992
2 25400  98.4100 293.8120 0010545 139.3541 220.8428 14.25359267904857
SL-16 R/B               
1 25407U 98045B   15335.67687303 -.00000110  00000-0 -31745-4 0  9999
2 25407  71.0093 145.6005 0008648 330.7384  29.3253 14.15728876896427
ISS (ZARYA)             
1 25544U 98067A   15336.54379904  .00013459  00000-0  20795-3 0  9997
2 25544  51.6443 323.8383 0008391 229.4378 230.3163 15.54399672974235
SL-8 R/B                
1 25723U 99022C   15335.17476956  .00011652  00000-0  25552-3 0  9990
2 25723  48.4200 274.8669 0013274 208.5350 239.8009 15.44335982919027
CZ-4B R/B               
1 25732U 99025C   15336.38671916  .00000030  00000-0  37248-4 0  9994
2 25732  98.9564 321.2729 0036408 253.2768 243.1841 14.17590214856895
OKEAN-O                 
1 25860U 99039A   15335.49379559  .00000455  00000-0  73257-4 0  9991
2 25860  98.1178 304.0447 0001700 104.5579  43.6146 14.76214535880668
SL-16 R/B               
1 25861U 99039B   15336.52042885  .00000206  00000-0  35657-4 0  9992
2 25861  98.0258 295.8801 0017099  94.3361  16.7958 14.78233352882643
TERRA                   
1 25994U 99068A   15336.45837346  .00000290  00000-0  74398-4 0  9995
2 25994  98.2096  48.5935 0001297  88.4681 271.6675 14.57124594848728
SL-14 R/B               
1 26874U 01032B   15336.17869412  .00021147  00000-0  16615-3 0  9996
2 26874  82.4626 137.1577 0008113 231.2855 128.7682 15.71303591804457
ENVISAT                 
1 27386U 02009A   15336.35408426  .00000049  00000-0  30371-4 0  9998
2 27386  98.3126  31.5595 0001073  81.8289 278.3028 14.37844344720193
IDEFIX & ARIANE 42P R/B 
1 27422U 02021B   15335.81040898  .00000032  00000-0  28449-4 0  9993
2 27422  98.2433 356.1804 0013512 105.8467 254.4206 14.29220655706202
AQUA                    
1 27424U 02022A   15335.53746441  .00000458  00000-0  11176-3 0  9992
2 27424  98.2127 273.9233 0001894  75.6100  36.7865 14.57106384722195
CZ-4B R/B               
1 27432U 02024C   15335.99139810  .00000027  00000-0  37196-4 0  9992
2 27432  98.9085 297.8497 0050316 186.4864 215.3512 14.13994803699204
MIDORI II (ADEOS-II)    
1 27597U 02056A   15336.54997935  .00000146  00000-0  76457-4 0  9996
2 27597  98.3015 321.3866 0001420 130.9633  13.8423 14.27153836675165
H-2A R/B                
1 27601U 02056E   15336.40389727  .00000132  00000-0  63645-4 0  9991
2 27601  98.4406  50.6296 0072733 161.7809 258.8291 14.31663321677286
CZ-4B R/B               
1 28059U 03049C   15335.86406270  .00000093  00000-0  34425-4 0  9994
2 28059  98.6377 196.9653 0050522 162.4071 262.3341 14.52400724641900
CZ-2C R/B               
1 28222U 04012C   15335.85927502  .00003173  00000-0  20647-3 0  9994
2 28222  97.4470 295.3555 0049201 318.8850  70.2490 15.07695267635680
